$$SOE
2459580.500000000, A.D. 2022-Jan-01 00:00:00.0000, 3.706374481068967E+08, 3.260328059422007E+08, -4.698896709228736E+07,
2459587.500000000, A.D. 2022-Jan-08 00:00:00.0000, 3.639748653043390E+08, 3.328326509471524E+08, -4.927841274337235E+07,
2459594.500000000, A.D. 2022-Jan-15 00:00:00.0000, 3.571671663331843E+08, 3.394997457253125E+08, -5.154820808262129E+07,
2459601.500000000, A.D. 2022-Jan-22 00:00:00.0000, 3.502168972004932E+08, 3.460312691191915E+08, -5.379742361548968E+07,
2459608.500000000, A.D. 2022-Jan-29 00:00:00.0000, 3.431266642030981E+08, 3.524244464155086E+08, -5.602513520252278E+07,
2459615.500000000, A.D. 2022-Feb-05 00:00:00.0000, 3.358991311612835E+08, 3.586765498206117E+08, -5.823042424556179E+07,
2459622.500000000, A.D. 2022-Feb-12 00:00:00.0000, 3.285370188049620E+08, 3.647848978700857E+08, -6.041237816168563E+07,
2459629.500000000, A.D. 2022-Feb-19 00:00:00.0000, 3.210431049868574E+08, 3.707468561399947E+08, -6.257009082983251E+07,
2459636.500000000, A.D. 2022-Feb-26 00:00:00.0000, 3.134202244098756E+08, 3.765598385359505E+08, -6.470266294882725E+07,
2459643.500000000, A.D. 2022-Mar-05 00:00:00.0000, 3.056712680270609E+08, 3.822213085429097E+08, -6.680920237195995E+07,
2459650.500000000, A.D. 2022-Mar-12 00:00:00.0000, 2.977991823353654E+08, 3.877287803697962E+08, -6.888882444404449E+07,
2459657.500000000, A.D. 2022-Mar-19 00:00:00.0000, 2.898069686337382E+08, 3.930798200167558E+08, -7.094065234540933E+07,
2459664.500000000, A.D. 2022-Mar-26 00:00:00.0000, 2.816976822673606E+08, 3.982720462588723E+08, -7.296381744555837E+07,
2459671.500000000, A.D. 2022-Apr-02 00:00:00.0000, 2.734744319252434E+08, 4.033031314903495E+08, -7.495745967745923E+07,
2459678.500000000, A.D. 2022-Apr-09 00:00:00.0000, 2.651403792627929E+08, 4.081708024340494E+08, -7.692072795722228E+07,
2459685.500000000, A.D. 2022-Apr-16 00:00:00.0000, 2.566987392065124E+08, 4.128728413704598E+08, -7.885278062878428E+07,
2459692.500000000, A.D. 2022-Apr-23 00:00:00.0000, 2.481527796718480E+08, 4.174070889689634E+08, -8.075278572859509E+07,
2459699.500000000, A.D. 2022-Apr-30 00:00:00.0000, 2.395058188220663E+08, 4.217714464744911E+08, -8.261992108158532E+07,
2459706.500000000, A.D. 2022-May-07 00:00:00.0000, 2.307612229298289E+08, 4.259638752772894E+08, -8.445337467069961E+07,
2459713.500000000, A.D. 2022-May-14 00:00:00.0000, 2.219224062319225E+08, 4.299823969043819E+08, -8.625234515968826E+07,
2459720.500000000, A.D. 2022-May-21 00:00:00.0000, 2.129928307458048E+08, 4.338250941898149E+08, -8.801604232060805E+07,
2459727.500000000, A.D. 2022-May-28 00:00:00.0000, 2.039760055682036E+08, 4.374901126638545E+08, -8.974368740008718E+07,
2459734.500000000, A.D. 2022-Jun-04 00:00:00.0000, 1.948754859322367E+08, 4.409756618478010E+08, -9.143451347512698E+07,
2459741.500000000, A.D. 2022-Jun-11 00:00:00.0000, 1.856948721672934E+08, 4.442800164561631E+08, -9.308776581136324E+07,
2459748.500000000, A.D. 2022-Jun-18 00:00:00.0000, 1.764378085999727E+08, 4.474015175190393E+08, -9.470270222607414E+07,
2459755.500000000, A.D. 2022-Jun-25 00:00:00.0000, 1.671079824251317E+08, 4.503385733911431E+08, -9.627859346116363E+07,
2459762.500000000, A.D. 2022-Jul-02 00:00:00.0000, 1.577091226807220E+08, 4.530896605814621E+08, -9.781472358362928E+07,
2459769.500000000, A.D. 2022-Jul-09 00:00:00.0000, 1.482449997165348E+08, 4.556533245805053E+08, -9.931039043483494E+07,
2459776.500000000, A.D. 2022-Jul-16 00:00:00.0000, 1.387194251022812E+08, 4.580281817678081E+08, -1.007649060352018E+08,
2459783.500000000, A.D. 2022-Jul-23 00:00:00.0000, 1.291362497775177E+08, 4.602129224752589E+08, -1.021775967358397E+08,
2459790.500000000, A.D. 2022-Jul-30 00:00:00.0000, 1.194993605264249E+08, 4.622063118492138E+08, -1.035478033974694E+08,
2459797.500000000, A.D. 2022-Aug-06 00:00:00.0000, 1.098126783752093E+08, 4.640071891591206E+08, -1.048748818732381E+08,
2459804.500000000, A.D. 2022-Aug-13 00:00:00.0000, 1.000801580893894E+08, 4.656144683058992E+08, -1.061582034943603E+08,
2459811.500000000, A.D. 2022-Aug-20 00:00:00.0000, 9.030578720074421E+07, 4.670271390242854E+08, -1.073971554545515E+08,
2459818.500000000, A.D. 2022-Aug-27 00:00:00.0000, 8.049358463057995E+07, 4.682442680515614E+08, -1.085911411580877E+08,
2459825.500000000, A.D. 2022-Sep-03 00:00:00.0000, 7.064759915651244E+07, 4.692650001522116E+08, -1.097395805631672E+08,
2459832.500000000, A.D. 2022-Sep-10 00:00:00.0000, 6.077190781302457E+07, 4.700885590225288E+08, -1.108419105270905E+08,
2459839.500000000, A.D. 2022-Sep-17 00:00:00.0000, 5.087061425585332E+07, 4.707142480729743E+08, -1.118975851562428E+08,
2459846.500000000, A.D. 2022-Sep-24 00:00:00.0000, 4.094784715127705E+07, 4.711414510363218E+08, -1.129060761705124E+08,
2459853.500000000, A.D. 2022-Oct-01 00:00:00.0000, 3.100775883061930E+07, 4.713696323778733E+08, -1.138668733057732E+08,
2459860.500000000, A.D. 2022-Oct-08 00:00:00.0000, 2.105452461734433E+07, 4.713983380286518E+08, -1.147794847490560E+08,
2459867.500000000, A.D. 2022-Oct-15 00:00:00.0000, 1.109234189549842E+07, 4.712271976398895E+08, -1.156434374231610E+08,
2459874.500000000, A.D. 2022-Oct-22 00:00:00.0000, 1.125426739018876E+06, 4.708559266723922E+08, -1.164582770577008E+08,
2459881.500000000, A.D. 2022-Oct-29 00:00:00.0000, -8.841989401173005E+06, 4.702843257242982E+08, -1.172235684865218E+08,
2459888.500000000, A.D. 2022-Nov-05 00:00:00.0000, -1.880566085392281E+07, 4.695122798385292E+08, -1.179388961405532E+08,
2459895.500000000, A.D. 2022-Nov-12 00:00:00.0000, -2.876132869211233E+07, 4.685397590568590E+08, -1.186038644528428E+08,
2459902.500000000, A.D. 2022-Nov-19 00:00:00.0000, -3.870472222295253E+07, 4.673668192646249E+08, -1.192180981873991E+08,
2459909.500000000, A.D. 2022-Nov-26 00:00:00.0000, -4.863156074172198E+07, 4.659936029271070E+08, -1.197812427479705E+08,
2459916.500000000, A.D. 2022-Dec-03 00:00:00.0000, -5.853755538244445E+07, 4.644203397047371E+08, -1.202929644826573E+08,
2459923.500000000, A.D. 2022-Dec-10 00:00:00.0000, -6.841841101927722E+07, 4.626473469645601E+08, -1.207529509866972E+08,
2459930.500000000, A.D. 2022-Dec-17 00:00:00.0000, -7.826982819301265E+07, 4.606750301615796E+08, -1.211609114073071E+08,
2459937.500000000, A.D. 2022-Dec-24 00:00:00.0000, -8.808750495235065E+07, 4.585038830226105E+08, -1.215165767654097E+08,
2459944.500000000, A.D. 2022-Dec-31 00:00:00.0000, -9.786713825146872E+07, 4.561344876384916E+08, -1.218197003175639E+08,
2459951.500000000, A.D. 2023-Jan-07 00:00:00.0000, -1.076044247805898E+08, 4.535675154257326E+08, -1.220700578901897E+08,
2459958.500000000, A.D. 2023-Jan-14 00:00:00.0000, -1.172950631954462E+08, 4.508037294535710E+08, -1.222674479648332E+08,
2459965.500000000, A.D. 2023-Jan-21 00:00:00.0000, -1.269347583883920E+08, 4.478439849613477E+08, -1.224116917134213E+08,
2459972.500000000, A.D. 2023-Jan-28 00:00:00.0000, -1.365192241332942E+08, 4.446892278676087E+08, -1.225026333344144E+08,
2459979.500000000, A.D. 2023-Feb-04 00:00:00.0000, -1.460441843134805E+08, 4.413404942986594E+08, -1.225401404236712E+08,
2459986.500000000, A.D. 2023-Feb-11 00:00:00.0000, -1.555053745266197E+08, 4.377989109431702E+08, -1.225241042315478E+08,
2459993.500000000, A.D. 2023-Feb-18 00:00:00.0000, -1.648985441281391E+08, 4.340656954087035E+08, -1.224544398672935E+08,
2460000.500000000, A.D. 2023-Feb-25 00:00:00.0000, -1.742194584490027E+08, 4.301421564174541E+08, -1.223310864876273E+08,
2460007.500000000, A.D. 2023-Mar-04 00:00:00.0000, -1.834639010841908E+08, 4.260296938593597E+08, -1.221540074769670E+08,
2460014.500000000, A.D. 2023-Mar-11 00:00:00.0000, -1.926276762216100E+08, 4.217297987025215E+08, -1.219231906215138E+08,
2460021.500000000, A.D. 2023-Mar-18 00:00:00.0000, -2.017066109625282E+08, 4.172440527109119E+08, -1.216386482851123E+08,
2460028.500000000, A.D. 2023-Mar-25 00:00:00.0000, -2.106965574281491E+08, 4.125741279215430E+08, -1.213004176088333E+08,
2460035.500000000, A.D. 2023-Apr-01 00:00:00.0000, -2.195933942255845E+08, 4.077217862737150E+08, -1.209085607403710E+08,
2460042.500000000, A.D. 2023-Apr-08 00:00:00.0000, -2.283930278864930E+08, 4.026888806146792E+08, -1.204631649360641E+08,
2460049.500000000, A.D. 2023-Apr-15 00:00:00.0000, -2.370913966125902E+08, 3.974773559751312E+08, -1.199643424109226E+08,
2460056.500000000, A.D. 2023-Apr-22 00:00:00.0000, -2.456844745150503E+08, 3.920892480601275E+08, -1.194122303500477E+08,
2460063.500000000, A.D. 2023-Apr-29 00:00:00.0000, -2.541682736116118E+08, 3.865266812046770E+08, -1.188069911463012E+08,
2460070.500000000, A.D. 2023-May-06 00:00:00.0000, -2.625388453422526E+08, 3.807918675746669E+08, -1.181488125576400E+08,
2460077.500000000, A.D. 2023-May-13 00:00:00.0000, -2.707922825792190E+08, 3.748871067204537E+08, -1.174379077684378E+08,
2460084.500000000, A.D. 2023-May-20 00:00:00.0000, -2.789247218953307E+08, 3.688147849924580E+08, -1.166745154168671E+08,
2460091.500000000, A.D. 2023-May-27 00:00:00.0000, -2.869323458948486E+08, 3.625773747895814E+08, -1.158588996087929E+08,
2460098.500000000, A.D. 2023-Jun-03 00:00:00.0000, -2.948113855468276E+08, 3.561774336665184E+08, -1.149913499214474E+08,
2460105.500000000, A.D. 2023-Jun-10 00:00:00.0000, -3.025581224945553E+08, 3.496176032860246E+08, -1.140721814001035E+08,
2460112.500000000, A.D. 2023-Jun-17 00:00:00.0000, -3.101688912494414E+08, 3.429006081556545E+08, -1.131017345606003E+08,
2460119.500000000, A.D. 2023-Jun-24 00:00:00.0000, -3.176400809468320E+08, 3.360292542040694E+08, -1.120803754222328E+08,
2460126.500000000, A.D. 2023-Jul-01 00:00:00.0000, -3.249681364083760E+08, 3.290064280244399E+08, -1.110084955263048E+08,
2460133.500000000, A.D. 2023-Jul-08 00:00:00.0000, -3.321495601833477E+08, 3.218350976070436E+08, -1.098865117198302E+08,
2460140.500000000, A.D. 2023-Jul-15 00:00:00.0000, -3.391809168435274E+08, 3.145183117324508E+08, -1.087148658189641E+08,
2460147.500000000, A.D. 2023-Jul-22 00:00:00.0000, -3.460588360061988E+08, 3.070591969908099E+08, -1.074940245588326E+08,
$$EOE